BEIDOU-2 IGSO-1 (C06)   
1 36828U 10036A   25137.86732329 -.00000064  00000+0  00000+0 0  9994
2 36828  54.2705 166.5346 0049504 217.2488 271.0584  1.00286151 54131
BEIDOU-2 G4 (C04)       
1 37210U 10057A   25138.12343862 -.00000101  00000+0  00000+0 0  9995
2 37210   2.6664  70.4581 0004373 197.3486 172.6939  1.00272560 53322
BEIDOU-2 IGSO-2 (C07)   
1 37256U 10068A   25137.82687321 -.00000195  00000+0  00000+0 0  9997
2 37256  48.2660 276.7244 0045345 212.5160 148.6419  1.00299747 52831
BEIDOU-2 IGSO-3 (C08)   
1 37384U 11013A   25137.57375784 -.00000187  00000+0  00000+0 0  9990
2 37384  61.8430  43.9019 0030134 178.8153 327.9103  1.00274170 51697
BEIDOU-2 IGSO-4 (C09)   
1 37763U 11038A   25137.84958951  .00000044  00000+0  00000+0 0  9992
2 37763  54.5731 169.2096 0143028 230.9647 235.7188  1.00283953 50689
BEIDOU-2 IGSO-5 (C10)   
1 37948U 11073A   25138.29758519 -.00000156  00000+0  00000+0 0  9999
2 37948  48.4005 276.4189 0104088 219.1819 301.2466  1.00255411 49445
BEIDOU-2 G5 (C05)       
1 38091U 12008A   25138.53176578  .00000068  00000+0  00000+0 0  9995
2 38091   2.5900  71.2614 0009898 268.3048 147.0009  1.00273030 48521
BEIDOU-2 M3 (C11)       
1 38250U 12018A   25137.98965771 -.00000043  00000+0  00000+0 0  9996
2 38250  56.0916 318.1613 0020468 269.9597  89.8055  1.86233668 88933
BEIDOU-2 M4 (C12)       
1 38251U 12018B   25137.92153160 -.00000043  00000+0  00000+0 0  9992
2 38251  55.9951 317.4094 0011389 273.2988  86.5698  1.86232086 88930
BEIDOU-2 M6 (C14)       
1 38775U 12050B   25138.16864169 -.00000001  00000+0  00000+0 0  9998
2 38775  56.1962  75.9919 0014422 344.1626  15.7772  1.86230998 86302
BEIDOU-2 G6 (C02)       
1 38953U 12059A   25138.53680483 -.00000164  00000+0  00000+0 0  9991
2 38953   3.4177  77.6008 0010278 316.4670 119.6923  1.00270251 46093
BEIDOU-3S IGSO-1S (C31) 
1 40549U 15019A   25138.29074723 -.00000166  00000+0  00000+0 0  9993
2 40549  49.9459 300.2077 0038862 191.5088 303.5572  1.00284687 37104
BEIDOU-3S M2S (C58)     
1 40748U 15037A   25138.12441477 -.00000043  00000+0  00000+0 0  9994
2 40748  55.2172 315.6124 0007999 258.1466 101.7610  1.86229220 66768
BEIDOU-3S M1S (C57)     
1 40749U 15037B   25137.84529281 -.00000043  00000+0  00000+0 0  9993
2 40749  55.2140 315.6140 0003782  25.5381 334.4775  1.86253870 66765
BEIDOU-3S IGSO-2S (C56) 
1 40938U 15053A   25137.67275056 -.00000139  00000+0  00000+0 0  9996
2 40938  49.8365 263.4780 0058584 187.6509 122.8774  1.00274462 35383
BEIDOU-2 IGSO-6 (C13)   
1 41434U 16021A   25137.71364508 -.00000152  00000+0  00000+0 0  9995
2 41434  59.6677  41.9873 0054196 229.9025 313.8879  1.00292712 33519
BEIDOU-2 G7 (C03)       
1 41586U 16037A   25138.19052648 -.00000342  00000+0  00000+0 0  9993
2 41586   1.6914  68.5450 0009956 341.5457   5.1860  1.00271479 32818
BEIDOU-3 M1 (C19)       
1 43001U 17069A   25137.39736581 -.00000003  00000+0  00000+0 0  9993
2 43001  56.3442  76.1579 0011642 313.7921  46.0937  1.86231342 51239
BEIDOU-3 M2 (C20)       
1 43002U 17069B   25136.26135808 -.00000011  00000+0  00000+0 0  9993
2 43002  56.3429  76.2309 0009825 335.7174  24.2131  1.86230920 51203
BEIDOU-3 M7 (C27)       
1 43107U 18003A   25137.61812998 -.00000046  00000+0  00000+0 0  9998
2 43107  54.6761 316.0733 0004941  79.1216 280.9311  1.86232552 49992
BEIDOU-3 M8 (C28)       
1 43108U 18003B   25138.09826243 -.00000044  00000+0  00000+0 0  9998
2 43108  54.6686 316.0405 0002404 267.1480  92.8222  1.86231006 50007
BEIDOU-3 M4 (C22)       
1 43207U 18018A   25137.46554876 -.00000003  00000+0  00000+0 0  9999
2 43207  56.3031  76.2332 0007502 358.9449   1.0357  1.86231259 49371
BEIDOU-3 M3 (C21)       
1 43208U 18018B   25138.06903637  .00000000  00000+0  00000+0 0  9996
2 43208  56.3030  76.2174 0009555 326.0434  33.8798  1.86231179 49389
BEIDOU-3 M9 (C29)       
1 43245U 18029A   25137.75019251 -.00000044  00000+0  00000+0 0  9993
2 43245  54.5499 313.7439 0000494  99.5355 260.4648  1.86232749 48531
BEIDOU-3 M10 (C30)      
1 43246U 18029B   25136.07142202 -.00000051  00000+0  00000+0 0  9999
2 43246  54.5482 313.8290 0004305  28.6353 331.3802  1.86229171 48485
BEIDOU-2 IGSO-7 (C16)   
1 43539U 18057A   25137.74852132 -.00000070  00000+0  00000+0 0  9991
2 43539  55.1611 166.4835 0089061 236.3207 215.4028  1.00266233 25164
BEIDOU-3 M5 (C23)       
1 43581U 18062A   25137.37069686  .00000050  00000+0  00000+0 0  9994
2 43581  54.1000 195.7619 0004705 279.5031  80.5291  1.86228732 46266
BEIDOU-3 M6 (C24)       
1 43582U 18062B   25137.77185494  .00000049  00000+0  00000+0 0  9993
2 43582  54.0998 195.7376 0004326  12.2408 347.8535  1.86229505 46271
BEIDOU-3 M12 (C26)      
1 43602U 18067A   25137.70739349  .00000051  00000+0  00000+0 0  9991
2 43602  54.1927 194.4516 0007176  26.6188 333.5021  1.86227862 45757
BEIDOU-3 M11 (C25)      
1 43603U 18067B   25138.37831307  .00000051  00000+0  00000+0 0  9993
2 43603  54.1899 194.3932 0003959  11.1140 348.9763  1.86227333 45799
BEIDOU-3 M13 (C32)      
1 43622U 18072A   25138.33710529 -.00000001  00000+0  00000+0 0  9994
2 43622  56.2766  75.7254 0008193 315.4982  44.4217  1.86231354 45301
BEIDOU-3 M14 (C33)      
1 43623U 18072B   25138.20258560 -.00000001  00000+0  00000+0 0  9993
2 43623  56.2784  75.7234 0006472 340.6324  19.3282  1.86231356 45291
BEIDOU-3 M16 (C35)      
1 43647U 18078A   25137.82578240 -.00000044  00000+0  00000+0 0  9999
2 43647  54.4458 313.8115 0007591  31.2540 328.7860  1.86232297 44793
BEIDOU-3 M15 (C34)      
1 43648U 18078B   25137.95502794 -.00000043  00000+0  00000+0 0  9994
2 43648  54.4415 313.8088 0004672  45.1984 314.8347  1.86232336 44823
BEIDOU-3 G1 (C59)       
1 43683U 18085A   25135.62074543 -.00000265  00000+0  00000+0 0  9995
2 43683   3.0254  98.8918 0004989  11.3655 126.6744  1.00265207 24070
BEIDOU-3 M17 (C36)      
1 43706U 18093A   25137.57318624  .00000049  00000+0  00000+0 0  9996
2 43706  54.1834 195.7181 0009459 284.4581  75.5215  1.86228435 44156
BEIDOU-3 M18 (C37)      
1 43707U 18093B   25137.43584218  .00000050  00000+0  00000+0 0  9998
2 43707  54.1841 195.7146 0007361 313.1090  46.9146  1.86229897 44160
BEIDOU-3 IGSO-1 (C38)   
1 44204U 19023A   25137.64142112 -.00000217  00000+0  00000+0 0  9997
2 44204  58.1329  41.7379 0020566 224.4599 317.1164  1.00254979  3248
BEIDOU-2 G8 (C01)       
1 44231U 19027A   25138.24155135 -.00000235  00000+0  00000+0 0  9997
2 44231   1.6156  74.9909 0004668 259.9991 132.7281  1.00274172 22115
BEIDOU-3 IGSO-2 (C39)   
1 44337U 19035A   25138.47209274 -.00000072  00000+0  00000+0 0  9991
2 44337  55.2052 162.3280 0035914 210.0064 153.7936  1.00280365 21731
BEIDOU-3 M24 (C46)      
1 44542U 19061A   25137.50668895  .00000049  00000+0  00000+0 0  9992
2 44542  54.4109 196.0729 0007634 354.2608   5.8154  1.86229084 38426
BEIDOU-3 M23 (C45)      
1 44543U 19061B   25137.75054794  .00000049  00000+0  00000+0 0  9997
2 44543  54.4095 196.0333 0004921 334.0127 102.2841  1.86229299 38434
BEIDOU-3 IGSO-3 (C40)   
1 44709U 19073A   25137.81002784 -.00000186  00000+0  00000+0 0  9996
2 44709  55.4798 285.1593 0044383 182.3709 177.5449  1.00254420 20499
BEIDOU-3 M22 (C44)      
1 44793U 19078A   25137.88613605 -.00000044  00000+0  00000+0 0  9994
2 44793  54.2928 313.7004 0006619  39.3994 320.6437  1.86232169 37290
BEIDOU-3 M21 (C43)      
1 44794U 19078B   25138.01892453 -.00000044  00000+0  00000+0 0  9991
2 44794  54.2660 313.6649 0004574  37.7670 322.2602  1.86227784 37298
BEIDOU-3 M19 (C41)      
1 44864U 19090A   25138.59083667  .00000000  00000+0  00000+0 0  9996
2 44864  56.2106  75.8702 0018971 290.9724 286.1570  1.86231602 36889
BEIDOU-3 M20 (C42)      
1 44865U 19090B   25138.44500880  .00000000  00000+0  00000+0 0  9992
2 44865  56.2121  75.9090 0016843 303.7982 265.2213  1.86231514 36854
BEIDOU-3 G2 (C60)       
1 45344U 20017A   25138.53593603 -.00000131  00000+0  00000+0 0  9997
2 45344   2.8220  39.8102 0002476   5.7967 103.8448  1.00271669 19316
BEIDOU-3 G3 (C61)       
1 45807U 20040A   25137.89945687 -.00000343  00000+0  00000+0 0  9993
2 45807   1.4906  63.3262 0002332 318.8832 287.9632  1.00275690 18108
BEIDOU-3 G4 (C62)       
1 56564U 23066A   25138.54141839 -.00000101  00000+0  00000+0 0  9998
2 56564   1.2959 291.8544 0006093 178.1478 121.4166  1.00272408  7441
BEIDOU-3 M28 (C50)      
1 58654U 23207A   25138.09885586 -.00000003  00000+0  00000+0 0  9992
2 58654  55.3989  75.6694 0004083 318.7727  41.1813  1.86229890  9480
BEIDOU-3 M26 (C48)      
1 58655U 23207B   25137.89834138 -.00000004  00000+0  00000+0 0  9998
2 58655  55.4007  75.6623 0004359 297.6545  62.2855  1.86231655  9464
BEIDOU-3 M25 (C47)      
1 61186U 24168B   25135.62808911 -.00000055  00000+0  00000+0 0  9993
2 61186  54.8232 316.0227 0003360 303.8811  91.8765  1.86230294  4381
BEIDOU-3 M27 (C49)      
1 61187U 24168C   25137.79975216 -.00000045  00000+0  00000+0 0  9996
2 61187  54.8169 315.9325 0002103  31.8328 154.7889  1.86230255  1899
